COSMOS 2242             
1 22626U 93024A   26072.91506730  .00002220  00000+0  19255-3 0  9994
2 22626  82.5154 262.6739 0014958 293.3920  66.5728 14.96567460781025
SL-16 R/B               
1 22803U 93059B   26072.92352331  .00000020  00000+0  33447-4 0  9992
2 22803  70.9929   2.1985 0018290 210.3056 149.7012 14.17231457680132
ARIANE 40 R/B           
1 22830U 93061H   26072.88840049  .00000217  00000+0  95277-4 0  9995
2 22830  98.4908 141.6931 0009573 271.2192  88.7896 14.32863354694709
COSMOS 2278             
1 23087U 94023A   26072.27533716 -.00000032  00000+0  77144-5 0  9992
2 23087  71.0551 167.5967 0008316   6.5779 353.5451 14.14379565645314
SL-16 R/B               
1 23088U 94023B   26072.95642119 -.00000186  00000+0 -71220-4 0  9995
2 23088  70.9984  61.9248 0005661 281.3931  78.6555 14.15010486646692
SL-16 R/B               
1 23343U 94074B   26072.98677226  .00000531  00000+0  77824-4 0  9993
2 23343  97.7103 103.6305 0006091 195.0236 225.7884 14.79413417687888
SL-16 R/B               
1 23405U 94077B   26072.93639217  .00000190  00000+0  12154-3 0  9993
2 23405  70.9852 343.5559 0002856 206.7335 153.3641 14.15562299616839
ARIANE 40+ R/B          
1 23561U 95021B   26072.93870344  .00000319  00000+0  11552-3 0  9998
2 23561  98.4490 144.3637 0007800 125.2258  48.0723 14.39775823619853
SL-16 R/B               
1 23705U 95058B   26072.73158747  .00000300  00000+0  17789-3 0  9990
2 23705  71.0225 171.7697 0010649 118.5576 241.6620 14.15498196568421
SL-16 R/B               
1 24298U 96051B   26072.70706169  .00000092  00000+0  76164-4 0  9997
2 24298  70.7603 166.7361 0014729 141.8931 218.3233 14.12416894522214
ORBVIEW 2 (SEASTAR)     
1 24883U 97037A   26072.94851945  .00000333  00000+0  13195-3 0  9993
2 24883  98.8575 237.3733 0002980  63.2058 296.9431 14.35498387509088
SL-16 R/B               
1 25400U 98043G   26072.30992726  .00000083  00000+0  53558-4 0  9990
2 25400  98.8258  25.6990 0010036  10.3984 349.7401 14.26050761439500
